FLOCK 4Q-2              
1 58320U 23174BS  26094.82988595  .00034170  00000+0  68703-3 0  9991
2 58320  97.3834 181.7091 0006491  56.5416 303.6454 15.46535365134251
FLOCK 4Q-9              
1 58322U 23174BU  26094.78952854  .00036400  00000+0  73815-3 0  9995
2 58322  97.3874 181.7121 0006570  58.6115 301.5777 15.46272399134236
FLOCK 4Q-4              
1 58327U 23174BZ  26094.79945914  .00031423  00000+0  65103-3 0  9991
2 58327  97.3826 181.0600 0006992  76.7737 283.4292 15.45671422134219
FLOCK 4Q-13             
1 58328U 23174CA  26094.78644561  .00033760  00000+0  63339-3 0  9990
2 58328  97.4001 183.6383 0006898  67.2205 292.9774 15.48540998134308
FLOCK 4BE-18            
1 60480U 24149N   26094.68778295  .00025963  00000+0  66209-3 0  9991
2 60480  97.3741 177.7808 0004936 150.3314 209.8212 15.39493789 90997
FLOCK 4BE-7             
1 60481U 24149P   26094.67192714  .00026947  00000+0  73435-3 0  9999
2 60481  97.3772 177.2814 0003998 150.5009 209.6462 15.37443554 90947
FLOCK 4BE-26            
1 60484U 24149S   26094.75757337  .00147910  00000+0  25483-2 0  9992
2 60484  97.3712 178.0950 0005667 180.2807 179.8442 15.50511340 91025
FLOCK 4BE-36            
1 60486U 24149U   26094.76678005  .00027524  00000+0  68109-3 0  9990
2 60486  97.3753 178.4454 0004582 158.5145 201.6294 15.40402565 91041
FLOCK 4BE-25            
1 60487U 24149V   26094.75687713  .00021213  00000+0  58841-3 0  9997
2 60487  97.3811 177.5147 0003496 144.5127 215.6350 15.36943004 90954
FLOCK 4BE-31            
1 60488U 24149W   26094.20202561  .00039531  00000+0  94788-3 0  9994
2 60488  97.3811 178.5507 0003574 156.4186 203.7225 15.41287355 90977
FLOCK 4BE-20            
1 60489U 24149X   26094.68286022  .00019685  00000+0  56018-3 0  9993
2 60489  97.3715 176.5057 0004839 155.1586 204.9892 15.36152518 90928
FLOCK 4BE-23            
1 60490U 24149Y   26094.78598675  .00020232  00000+0  58235-3 0  9999
2 60490  97.3792 176.9442 0004420 160.7238 199.4174 15.35792935 90922
FLOCK 4BE-15            
1 60491U 24149Z   26094.78638057  .00121112  00000+0  25047-2 0  9992
2 60491  97.3723 178.2662 0005284 223.5771 136.5061 15.45338151 91043
FLOCK 4BE-17            
1 60492U 24149AA  26094.66923848  .00022524  00000+0  61028-3 0  9992
2 60492  97.3784 177.5764 0004213 151.0514 209.0965 15.37657379 90952
FLOCK 4BE-22            
1 60494U 24149AC  26094.77952269  .00025789  00000+0  67001-3 0  9998
2 60494  97.3744 177.7707 0004465 160.9845 199.1568 15.38926228 91002
FLOCK 4BE-34            
1 60495U 24149AD  26094.79895297  .00025836  00000+0  66868-3 0  9991
2 60495  97.3788 178.5608 0004548 166.8659 193.2705 15.39042979 91034
