[{"OBJECT_NAME":"FLOCK 4Q-2","OBJECT_ID":"2023-174BS","EPOCH":"2026-04-04T19:55:02.146080","MEAN_MOTION":15.46535365,"ECCENTRICITY":0.0006491,"INCLINATION":97.3834,"RA_OF_ASC_NODE":181.7091,"ARG_OF_PERICENTER":56.5416,"MEAN_ANOMALY":303.6454,"EPHEMERIS_TYPE":0,"CLASSIFICATION_TYPE":"U","NORAD_CAT_ID":58320,"ELEMENT_SET_NO":999,"REV_AT_EPOCH":13425,"BSTAR":0.00068703,"MEAN_MOTION_DOT":0.0003417,"MEAN_MOTION_DDOT":0},{"OBJECT_NAME":"FLOCK 4Q-9","OBJECT_ID":"2023-174BU","EPOCH":"2026-04-04T18:56:55.265856","MEAN_MOTION":15.46272399,"ECCENTRICITY":0.000657,"INCLINATION":97.3874,"RA_OF_ASC_NODE":181.7121,"ARG_OF_PERICENTER":58.6115,"MEAN_ANOMALY":301.5777,"EPHEMERIS_TYPE":0,"CLASSIFICATION_TYPE":"U","NORAD_CAT_ID":58322,"ELEMENT_SET_NO":999,"REV_AT_EPOCH":13423,"BSTAR":0.00073815,"MEAN_MOTION_DOT":0.000364,"MEAN_MOTION_DDOT":0},{"OBJECT_NAME":"FLOCK 4Q-4","OBJECT_ID":"2023-174BZ","EPOCH":"2026-04-04T19:11:13.269696","MEAN_MOTION":15.45671422,"ECCENTRICITY":0.0006992,"INCLINATION":97.3826,"RA_OF_ASC_NODE":181.06,"ARG_OF_PERICENTER":76.7737,"MEAN_ANOMALY":283.4292,"EPHEMERIS_TYPE":0,"CLASSIFICATION_TYPE":"U","NORAD_CAT_ID":58327,"ELEMENT_SET_NO":999,"REV_AT_EPOCH":13421,"BSTAR":0.00065103,"MEAN_MOTION_DOT":0.00031423,"MEAN_MOTION_DDOT":0},{"OBJECT_NAME":"FLOCK 4Q-13","OBJECT_ID":"2023-174CA","EPOCH":"2026-04-04T18:52:28.900704","MEAN_MOTION":15.48540998,"ECCENTRICITY":0.0006898,"INCLINATION":97.4001,"RA_OF_ASC_NODE":183.6383,"ARG_OF_PERICENTER":67.2205,"MEAN_ANOMALY":292.9774,"EPHEMERIS_TYPE":0,"CLASSIFICATION_TYPE":"U","NORAD_CAT_ID":58328,"ELEMENT_SET_NO":999,"REV_AT_EPOCH":13430,"BSTAR":0.00063339,"MEAN_MOTION_DOT":0.0003376,"MEAN_MOTION_DDOT":0},{"OBJECT_NAME":"FLOCK 4BE-18","OBJECT_ID":"2024-149N","EPOCH":"2026-04-04T16:30:24.446880","MEAN_MOTION":15.39493789,"ECCENTRICITY":0.0004936,"INCLINATION":97.3741,"RA_OF_ASC_NODE":177.7808,"ARG_OF_PERICENTER":150.3314,"MEAN_ANOMALY":209.8212,"EPHEMERIS_TYPE":0,"CLASSIFICATION_TYPE":"U","NORAD_CAT_ID":60480,"ELEMENT_SET_NO":999,"REV_AT_EPOCH":9099,"BSTAR":0.00066209,"MEAN_MOTION_DOT":0.00025963,"MEAN_MOTION_DDOT":0},{"OBJECT_NAME":"FLOCK 4BE-7","OBJECT_ID":"2024-149P","EPOCH":"2026-04-04T16:07:34.504896","MEAN_MOTION":15.37443554,"ECCENTRICITY":0.0003998,"INCLINATION":97.3772,"RA_OF_ASC_NODE":177.2814,"ARG_OF_PERICENTER":150.5009,"MEAN_ANOMALY":209.6462,"EPHEMERIS_TYPE":0,"CLASSIFICATION_TYPE":"U","NORAD_CAT_ID":60481,"ELEMENT_SET_NO":999,"REV_AT_EPOCH":9094,"BSTAR":0.00073435,"MEAN_MOTION_DOT":0.00026947,"MEAN_MOTION_DDOT":0},{"OBJECT_NAME":"FLOCK 4BE-26","OBJECT_ID":"2024-149S","EPOCH":"2026-04-04T18:10:54.339168","MEAN_MOTION":15.5051134,"ECCENTRICITY":0.0005667,"INCLINATION":97.3712,"RA_OF_ASC_NODE":178.095,"ARG_OF_PERICENTER":180.2807,"MEAN_ANOMALY":179.8442,"EPHEMERIS_TYPE":0,"CLASSIFICATION_TYPE":"U","NORAD_CAT_ID":60484,"ELEMENT_SET_NO":999,"REV_AT_EPOCH":9102,"BSTAR":0.0025483,"MEAN_MOTION_DOT":0.0014791,"MEAN_MOTION_DDOT":0},{"OBJECT_NAME":"FLOCK 4BE-36","OBJECT_ID":"2024-149U","EPOCH":"2026-04-04T18:24:09.796320","MEAN_MOTION":15.40402565,"ECCENTRICITY":0.0004582,"INCLINATION":97.3753,"RA_OF_ASC_NODE":178.4454,"ARG_OF_PERICENTER":158.5145,"MEAN_ANOMALY":201.6294,"EPHEMERIS_TYPE":0,"CLASSIFICATION_TYPE":"U","NORAD_CAT_ID":60486,"ELEMENT_SET_NO":999,"REV_AT_EPOCH":9104,"BSTAR":0.00068109,"MEAN_MOTION_DOT":0.00027524,"MEAN_MOTION_DDOT":0},{"OBJECT_NAME":"FLOCK 4BE-25","OBJECT_ID":"2024-149V","EPOCH":"2026-04-04T18:09:54.184032","MEAN_MOTION":15.36943004,"ECCENTRICITY":0.0003496,"INCLINATION":97.3811,"RA_OF_ASC_NODE":177.5147,"ARG_OF_PERICENTER":144.5127,"MEAN_ANOMALY":215.635,"EPHEMERIS_TYPE":0,"CLASSIFICATION_TYPE":"U","NORAD_CAT_ID":60487,"ELEMENT_SET_NO":999,"REV_AT_EPOCH":9095,"BSTAR":0.00058841,"MEAN_MOTION_DOT":0.00021213,"MEAN_MOTION_DDOT":0},{"OBJECT_NAME":"FLOCK 4BE-31","OBJECT_ID":"2024-149W","EPOCH":"2026-04-04T04:50:55.012704","MEAN_MOTION":15.41287355,"ECCENTRICITY":0.0003574,"INCLINATION":97.3811,"RA_OF_ASC_NODE":178.5507,"ARG_OF_PERICENTER":156.4186,"MEAN_ANOMALY":203.7225,"EPHEMERIS_TYPE":0,"CLASSIFICATION_TYPE":"U","NORAD_CAT_ID":60488,"ELEMENT_SET_NO":999,"REV_AT_EPOCH":9097,"BSTAR":0.00094787615,"MEAN_MOTION_DOT":0.00039531,"MEAN_MOTION_DDOT":0},{"OBJECT_NAME":"FLOCK 4BE-20","OBJECT_ID":"2024-149X","EPOCH":"2026-04-04T16:23:19.123008","MEAN_MOTION":15.36152518,"ECCENTRICITY":0.0004839,"INCLINATION":97.3715,"RA_OF_ASC_NODE":176.5057,"ARG_OF_PERICENTER":155.1586,"MEAN_ANOMALY":204.9892,"EPHEMERIS_TYPE":0,"CLASSIFICATION_TYPE":"U","NORAD_CAT_ID":60489,"ELEMENT_SET_NO":999,"REV_AT_EPOCH":9092,"BSTAR":0.00056018,"MEAN_MOTION_DOT":0.00019685,"MEAN_MOTION_DDOT":0},{"OBJECT_NAME":"FLOCK 4BE-23","OBJECT_ID":"2024-149Y","EPOCH":"2026-04-04T18:51:49.255200","MEAN_MOTION":15.35792935,"ECCENTRICITY":0.000442,"INCLINATION":97.3792,"RA_OF_ASC_NODE":176.9442,"ARG_OF_PERICENTER":160.7238,"MEAN_ANOMALY":199.4174,"EPHEMERIS_TYPE":0,"CLASSIFICATION_TYPE":"U","NORAD_CAT_ID":60490,"ELEMENT_SET_NO":999,"REV_AT_EPOCH":9092,"BSTAR":0.00058235,"MEAN_MOTION_DOT":0.00020232,"MEAN_MOTION_DDOT":0},{"OBJECT_NAME":"FLOCK 4BE-15","OBJECT_ID":"2024-149Z","EPOCH":"2026-04-04T18:52:23.281248","MEAN_MOTION":15.45338151,"ECCENTRICITY":0.0005284,"INCLINATION":97.3723,"RA_OF_ASC_NODE":178.2662,"ARG_OF_PERICENTER":223.5771,"MEAN_ANOMALY":136.5061,"EPHEMERIS_TYPE":0,"CLASSIFICATION_TYPE":"U","NORAD_CAT_ID":60491,"ELEMENT_SET_NO":999,"REV_AT_EPOCH":9104,"BSTAR":0.0025047,"MEAN_MOTION_DOT":0.00121112,"MEAN_MOTION_DDOT":0},{"OBJECT_NAME":"FLOCK 4BE-17","OBJECT_ID":"2024-149AA","EPOCH":"2026-04-04T16:03:42.204672","MEAN_MOTION":15.37657379,"ECCENTRICITY":0.0004213,"INCLINATION":97.3784,"RA_OF_ASC_NODE":177.5764,"ARG_OF_PERICENTER":151.0514,"MEAN_ANOMALY":209.0965,"EPHEMERIS_TYPE":0,"CLASSIFICATION_TYPE":"U","NORAD_CAT_ID":60492,"ELEMENT_SET_NO":999,"REV_AT_EPOCH":9095,"BSTAR":0.00061028,"MEAN_MOTION_DOT":0.00022524,"MEAN_MOTION_DDOT":0},{"OBJECT_NAME":"FLOCK 4BE-22","OBJECT_ID":"2024-149AC","EPOCH":"2026-04-04T18:42:30.760416","MEAN_MOTION":15.38926228,"ECCENTRICITY":0.0004465,"INCLINATION":97.3744,"RA_OF_ASC_NODE":177.7707,"ARG_OF_PERICENTER":160.9845,"MEAN_ANOMALY":199.1568,"EPHEMERIS_TYPE":0,"CLASSIFICATION_TYPE":"U","NORAD_CAT_ID":60494,"ELEMENT_SET_NO":999,"REV_AT_EPOCH":9100,"BSTAR":0.00067001,"MEAN_MOTION_DOT":0.00025789,"MEAN_MOTION_DDOT":0},{"OBJECT_NAME":"FLOCK 4BE-34","OBJECT_ID":"2024-149AD","EPOCH":"2026-04-04T19:10:29.536608","MEAN_MOTION":15.39042979,"ECCENTRICITY":0.0004548,"INCLINATION":97.3788,"RA_OF_ASC_NODE":178.5608,"ARG_OF_PERICENTER":166.8659,"MEAN_ANOMALY":193.2705,"EPHEMERIS_TYPE":0,"CLASSIFICATION_TYPE":"U","NORAD_CAT_ID":60495,"ELEMENT_SET_NO":999,"REV_AT_EPOCH":9103,"BSTAR":0.00066868,"MEAN_MOTION_DOT":0.00025836,"MEAN_MOTION_DDOT":0}]
